STARLINK-32220          
1 60370U 24138R   26203.94310704  .00002623  00000+0  10072-3 0  9990
2 60370  53.1596  41.4954 0001451  98.6221 261.4945 15.30181440111330
STARLINK-32263          
1 60371U 24138S   26203.83770323 -.00002500  00000+0 -72341-4 0  9990
2 60371  53.1622  41.5502 0001351  76.0294 284.0857 15.30185293111221
STARLINK-32268          
1 60372U 24138T   26203.95787457  .00000603  00000+0  32477-4 0  9996
2 60372  53.1607  41.5864 0001070 102.8557 257.2564 15.30202474111334
STARLINK-32223          
1 60373U 24138U   26203.94536276 -.00000220  00000+0  46654-5 0  9996
2 60373  53.1617  40.8029 0001355 109.4315 250.6833 15.31703551111241
STARLINK-32180          
1 60374U 24138V   26203.93136083  .00000204  00000+0  18360-4 0  9991
2 60374  53.1611  40.7157 0001527  82.1364 277.9811 15.31704444111340
STARLINK-32281          
1 60375U 24138W   26203.96062378  .00001540  00000+0  56704-4 0  9998
2 60375  53.1600  40.1901 0001152  83.8356 276.2778 15.34404749111255
STARLINK-32277          
1 60376U 24138X   26203.94626947  .00000720  00000+0  36426-4 0  9993
2 60376  53.1606  41.5132 0001419  87.4638 272.6526 15.30197329111331
STARLINK-32269          
1 60377U 24138Y   26203.82419271  .00001709  00000+0  66788-4 0  9993
2 60377  53.1605  41.4594 0001218  97.0920 263.0220 15.31715142111324
QIANFAN-1               
1 60379U 24140A   26204.25245377  .00000066  00000+0  83765-4 0  9999
2 60379  88.9725 276.1912 0015223 294.2125  65.7435 13.51021423 97392
QIANFAN-2               
1 60380U 24140B   26204.20730614  .00000069  00000+0  88718-4 0  9995
2 60380  88.9712 276.0050 0010491 261.4550  98.5412 13.51017285 97448
QIANFAN-3               
1 60381U 24140C   26204.21548926  .00000072  00000+0  93261-4 0  9993
2 60381  88.9704 276.1199 0011534 276.8086  83.1753 13.51018300 97355
QIANFAN-4               
1 60382U 24140D   26204.26477090  .00000085  00000+0  11332-3 0  9994
2 60382  88.9729 276.0684 0010686 264.4565  95.5367 13.51021373 97489
QIANFAN-5               
1 60383U 24140E   26204.24020046  .00000070  00000+0  89337-4 0  9993
2 60383  88.9704 276.1419 0012829 290.1817  69.7954 13.51011953 97340
QIANFAN-6               
1 60384U 24140F   26204.26067536  .00000067  00000+0  85106-4 0  9997
2 60384  88.9731 275.9463 0010778 271.7713  88.2204 13.51020042 97543
QIANFAN-7               
1 60385U 24140G   26204.26049601  .00000376  00000+0  14597-3 0  9999
2 60385  88.9760 267.5363 0016143  37.6957 322.5365 14.27869678102148
QIANFAN-8               
1 60386U 24140H   26204.26897627  .00000082  00000+0  10851-3 0  9992
2 60386  88.9732 276.1858 0014228 274.5532  85.3993 13.51016456 97391
QIANFAN-9               
1 60387U 24140J   26204.24416145  .00000066  00000+0  83486-4 0  9990
2 60387  88.9730 276.2592 0013913 274.3430  85.6132 13.51022156 97371
QIANFAN-10              
1 60388U 24140K   26204.24828270  .00000064  00000+0  80197-4 0  9991
2 60388  88.9741 275.6292 0012644 247.5883 112.3929 13.51023353 97505
QIANFAN-11              
1 60389U 24140L   26204.21133264  .00000061  00000+0  75189-4 0  9993
2 60389  88.9666 276.0528 0011952 274.0993  85.8792 13.51017206 97150
QIANFAN-12              
1 60390U 24140M   26204.23195783  .00000081  00000+0  10761-3 0  9997
2 60390  88.9709 276.1910 0010775 283.9129  76.0824 13.51019413 97282
QIANFAN-13              
1 60391U 24140N   26204.27717634  .00000071  00000+0  91933-4 0  9997
2 60391  88.9721 276.3131 0010604 287.0389  72.9600 13.51019525 97313
QIANFAN-14              
1 60392U 24140P   26204.22790210  .00000028  00000+0  25041-4 0  9993
2 60392  88.9700 276.1687 0014292 286.6269  73.3313 13.51022441 97311
QIANFAN-15              
1 60393U 24140Q   26204.23607792  .00000074  00000+0  95978-4 0  9994
2 60393  88.9724 276.1774 0010082 270.2046  89.7950 13.51013456 97303
QIANFAN-16              
1 60394U 24140R   26204.22371559  .00000076  00000+0  99445-4 0  9998
2 60394  88.9726 276.3050 0012272 291.5584  68.4259 13.51021425 97212
QIANFAN-17              
1 60395U 24140S   26204.21956832  .00000070  00000+0  89639-4 0  9999
2 60395  88.9737 276.3757 0012619 283.9925  75.9823 13.51017389 98178
QIANFAN-18              
1 60396U 24140T   26204.27303988  .00000073  00000+0  94206-4 0  9993
2 60396  88.9731 275.8890 0011993 263.1064  96.8722 13.51016904 97578
STARLINK-11228 [DTC]    
1 60398U 24141A   26204.12043777  .00000234  00000+0  68188-5 0  9997
2 60398  53.1594 138.6571 0003014  27.6461 332.4717 15.69700016112961
STARLINK-11182 [DTC]    
1 60399U 24141B   26204.23304374  .00000613  00000+0  99148-5 0  9994
2 60399  53.1597 137.9278 0000776  79.8419 280.2686 15.69712889113030
STARLINK-11234 [DTC]    
1 60400U 24141C   26204.22812171  .00002819  00000+0  28100-4 0  9994
2 60400  53.1601 137.8938 0000948 101.6351 258.4774 15.69723780112981
STARLINK-11232 [DTC]    
1 60401U 24141D   26204.09590256 -.00000707  00000+0 -97370-6 0  9990
2 60401  53.1585 138.4898 0001406  55.9005 304.2146 15.69705083113016
